LEMUR-2-ANDIS           
1 42838U 17042P   26068.55941107  .00023598  00000+0  79875-3 0  9998
2 42838  97.3659 249.7950 0009101   4.3248 355.8070 15.30557934473198
STARLINK-1012           
1 44718U 19074F   26068.62155426 -.00002011  00000+0 -55774-4 0  9995
2 44718  53.1621 179.1275 0002340  35.4860 324.6296 15.30183402348858
